{"type": "FeatureCollection", "features": [ {"type": "Feature", "properties": {"norad_id": 34031, "name": "COSMOS 2251 DEB", "group": "cosmos-2251-debris", "lat": 3.6025409675204556, "lon": 152.01518816140748, "alt_km": 697.5353778250628, "timestamp": "2025-12-04T17:48:40.558396+00:00", "meta": {"OBJECT_NAME": "COSMOS 2251 DEB", "OBJECT_ID": "1993-036HS", "EPOCH": "2025-12-03T18:49:51.728736", "MEAN_MOTION": 14.59508576, "ECCENTRICITY": 0.0022927, "INCLINATION": 74.0115, "RA_OF_ASC_NODE": 152.8085, "ARG_OF_PERICENTER": 273.4164, "MEAN_ANOMALY": 101.2427, "EPHEMERIS_TYPE": 0, "CLASSIFICATION_TYPE": "U", "NORAD_CAT_ID": 34031, "ELEMENT_SET_NO": 999, "REV_AT_EPOCH": 88435, "BSTAR": 0.0018509622, "MEAN_MOTION_DOT": 8.801e-05, "MEAN_MOTION_DDOT": 0}, "tle": {"line1": "1 34031U 93036HS  25337.78462649  .00008801  00000+0  18510-2 0  9991", "line2": "2 34031  74.0115 152.8085 0022927 273.4164 101.2427 14.59508576884354"}}, "geometry": {"type": "Point", "coordinates": [152.01518816140748, 3.6025409675204556]}}, {"type": "Feature", "properties": {"norad_id": 34035, "name": "COSMOS 2251 DEB", "group": "cosmos-2251-debris", "lat": 28.442886368898886, "lon": 13.08075639270787, "alt_km": 689.1335027485293, "timestamp": "2025-12-04T17:48:40.558406+00:00", "meta": {"OBJECT_NAME": "COSMOS 2251 DEB", "OBJECT_ID": "1993-036HW", "EPOCH": "2025-12-04T04:57:23.221728", "MEAN_MOTION": 14.51777673, "ECCENTRICITY": 0.00441395, "INCLINATION": 74.0658, "RA_OF_ASC_NODE": 5.185, "ARG_OF_PERICENTER": 8.7528, "MEAN_ANOMALY": 102.6253, "EPHEMERIS_TYPE": 0, "CLASSIFICATION_TYPE": "U", "NORAD_CAT_ID": 34035, "ELEMENT_SET_NO": 999, "REV_AT_EPOCH": 87842, "BSTAR": 0.0034037189, "MEAN_MOTION_DOT": 0.00013861, "MEAN_MOTION_DDOT": 0}, "tle": {"line1": "1 34035U 93036HW  25338.20651877  .00013861  00000+0  34037-2 0  9990", "line2": "2 34035  74.0658   5.1850 0044139   8.7528 102.6253 14.51777673878423"}}, "geometry": {"type": "Point", "coordinates": [13.08075639270787, 28.442886368898886]}}, {"type": "Feature", "properties": {"norad_id": 34036, "name": "COSMOS 2251 DEB", "group": "cosmos-2251-debris", "lat": 34.751818834564354, "lon": -26.07038579519441, "alt_km": 577.3334519305727, "timestamp": "2025-12-04T17:48:40.558417+00:00", "meta": {"OBJECT_NAME": "COSMOS 2251 DEB", "OBJECT_ID": "1993-036HX", "EPOCH": "2025-12-03T15:27:13.917312", "MEAN_MOTION": 14.93800891, "ECCENTRICITY": 0.00148465, "INCLINATION": 74.0198, "RA_OF_ASC_NODE": 167.609, "ARG_OF_PERICENTER": 201.8914, "MEAN_ANOMALY": 158.1638, "EPHEMERIS_TYPE": 0, "CLASSIFICATION_TYPE": "U", "NORAD_CAT_ID": 34036, "ELEMENT_SET_NO": 999, "REV_AT_EPOCH": 88434, "BSTAR": 0.0048127428, "MEAN_MOTION_DOT": 0.00051513, "MEAN_MOTION_DDOT": 0}, "tle": {"line1": "1 34036U 93036HX  25337.64391108  .00051513  00000+0  48127-2 0  9997", "line2": "2 34036  74.0198 167.6090 0014846 201.8914 158.1638 14.93800891884346"}}, "geometry": {"type": "Point", "coordinates": [-26.07038579519441, 34.751818834564354]}}, {"type": "Feature", "properties": {"norad_id": 34037, "name": "COSMOS 2251 DEB", "group": "cosmos-2251-debris", "lat": 52.558829847140856, "lon": -136.84775799282653, "alt_km": 733.812100041715, "timestamp": "2025-12-04T17:48:40.558428+00:00", "meta": {"OBJECT_NAME": "COSMOS 2251 DEB", "OBJECT_ID": "1993-036HY", "EPOCH": "2025-12-04T07:11:43.472544", "MEAN_MOTION": 14.34629205, "ECCENTRICITY": 0.00523609, "INCLINATION": 74.0527, "RA_OF_ASC_NODE": 65.8887, "ARG_OF_PERICENTER": 118.4584, "MEAN_ANOMALY": 242.1858, "EPHEMERIS_TYPE": 0, "CLASSIFICATION_TYPE": "U", "NORAD_CAT_ID": 34037, "ELEMENT_SET_NO": 999, "REV_AT_EPOCH": 87596, "BSTAR": 0.0012107745, "MEAN_MOTION_DOT": 3.452e-05, "MEAN_MOTION_DDOT": 0}, "tle": {"line1": "1 34037U 93036HY  25338.29980871  .00003452  00000+0  12108-2 0  9990", "line2": "2 34037  74.0527  65.8887 0052360 118.4584 242.1858 14.34629205875964"}}, "geometry": {"type": "Point", "coordinates": [-136.84775799282653, 52.558829847140856]}}, {"type": "Feature", "properties": {"norad_id": 34040, "name": "COSMOS 2251 DEB", "group": "cosmos-2251-debris", "lat": 52.27933600010285, "lon": -122.76363651566707, "alt_km": 993.4152047638227, "timestamp": "2025-12-04T17:48:40.558438+00:00", "meta": {"OBJECT_NAME": "COSMOS 2251 DEB", "OBJECT_ID": "1993-036JB", "EPOCH": "2025-12-03T23:41:20.420160", "MEAN_MOTION": 13.68361466, "ECCENTRICITY": 0.03428341, "INCLINATION": 73.9556, "RA_OF_ASC_NODE": 80.325, "ARG_OF_PERICENTER": 35.5129, "MEAN_ANOMALY": 326.8289, "EPHEMERIS_TYPE": 0, "CLASSIFICATION_TYPE": "U", "NORAD_CAT_ID": 34040, "ELEMENT_SET_NO": 999, "REV_AT_EPOCH": 83480, "BSTAR": 0.00058612424, "MEAN_MOTION_DOT": 7.34e-06, "MEAN_MOTION_DDOT": 0}, "tle": {"line1": "1 34040U 93036JB  25337.98704190  .00000734  00000+0  58612-3 0  9998", "line2": "2 34040  73.9556  80.3250 0342834  35.5129 326.8289 13.68361466834800"}}, "geometry": {"type": "Point", "coordinates": [-122.76363651566707, 52.27933600010285]}}, {"type": "Feature", "properties": {"norad_id": 34045, "name": "COSMOS 2251 DEB", "group": "cosmos-2251-debris", "lat": -5.678389110083894, "lon": 147.09704262288258, "alt_km": 794.1770012004836, "timestamp": "2025-12-04T17:48:40.558448+00:00", "meta": {"OBJECT_NAME": "COSMOS 2251 DEB", "OBJECT_ID": "1993-036JG", "EPOCH": "2025-12-04T07:22:56.074944", "MEAN_MOTION": 14.34061589, "ECCENTRICITY": 0.00253678, "INCLINATION": 74.0386, "RA_OF_ASC_NODE": 326.2611, "ARG_OF_PERICENTER": 52.3234, "MEAN_ANOMALY": 50.7812, "EPHEMERIS_TYPE": 0, "CLASSIFICATION_TYPE": "U", "NORAD_CAT_ID": 34045, "ELEMENT_SET_NO": 999, "REV_AT_EPOCH": 87912, "BSTAR": 0.00018127721, "MEAN_MOTION_DOT": 4.83e-06, "MEAN_MOTION_DDOT": 0}, "tle": {"line1": "1 34045U 93036JG  25338.30759346  .00000483  00000+0  18128-3 0  9992", "line2": "2 34045  74.0386 326.2611 0025367  52.3234  50.7812 14.34061589879120"}}, "geometry": {"type": "Point", "coordinates": [147.09704262288258, -5.678389110083894]}}, {"type": "Feature", "properties": {"norad_id": 34046, "name": "COSMOS 2251 DEB", "group": "cosmos-2251-debris", "lat": 0.10862597646991133, "lon": -154.62542241537187, "alt_km": 720.3009378108263, "timestamp": "2025-12-04T17:48:40.558458+00:00", "meta": {"OBJECT_NAME": "COSMOS 2251 DEB", "OBJECT_ID": "1993-036JH", "EPOCH": "2025-12-04T05:39:28.474272", "MEAN_MOTION": 14.46364791, "ECCENTRICITY": 0.0074838, "INCLINATION": 74.0401, "RA_OF_ASC_NODE": 26.3505, "ARG_OF_PERICENTER": 112.2943, "MEAN_ANOMALY": 311.0139, "EPHEMERIS_TYPE": 0, "CLASSIFICATION_TYPE": "U", "NORAD_CAT_ID": 34046, "ELEMENT_SET_NO": 999, "REV_AT_EPOCH": 87703, "BSTAR": 0.0027339555, "MEAN_MOTION_DOT": 0.00010148, "MEAN_MOTION_DDOT": 0}, "tle": {"line1": "1 34046U 93036JH  25338.23574623  .00010148  00000+0  27340-2 0  9992", "line2": "2 34046  74.0401  26.3505 0074838 112.2943 311.0139 14.46364791877036"}}, "geometry": {"type": "Point", "coordinates": [-154.62542241537187, 0.10862597646991133]}}, {"type": "Feature", "properties": {"norad_id": 34050, "name": "COSMOS 2251 DEB", "group": "cosmos-2251-debris", "lat": 55.787890765025104, "lon": 48.57665175611883, "alt_km": 766.1969018426626, "timestamp": "2025-12-04T17:48:40.558468+00:00", "meta": {"OBJECT_NAME": "COSMOS 2251 DEB", "OBJECT_ID": "1993-036JM", "EPOCH": "2025-12-04T05:48:06.030144", "MEAN_MOTION": 13.96160202, "ECCENTRICITY": 0.02146508, "INCLINATION": 74.0887, "RA_OF_ASC_NODE": 24.6291, "ARG_OF_PERICENTER": 91.1229, "MEAN_ANOMALY": 335.3632, "EPHEMERIS_TYPE": 0, "CLASSIFICATION_TYPE": "U", "NORAD_CAT_ID": 34050, "ELEMENT_SET_NO": 999, "REV_AT_EPOCH": 85313, "BSTAR": 0.00097011528, "MEAN_MOTION_DOT": 1.596e-05, "MEAN_MOTION_DDOT": 0}, "tle": {"line1": "1 34050U 93036JM  25338.24173646  .00001596  00000+0  97012-3 0  9999", "line2": "2 34050  74.0887  24.6291 0214650  91.1229 335.3632 13.96160202853139"}}, "geometry": {"type": "Point", "coordinates": [48.57665175611883, 55.787890765025104]}}, {"type": "Feature", "properties": {"norad_id": 34053, "name": "COSMOS 2251 DEB", "group": "cosmos-2251-debris", "lat": -55.51853745933252, "lon": -129.90551256852277, "alt_km": 1145.570684422244, "timestamp": "2025-12-04T17:48:40.558478+00:00", "meta": {"OBJECT_NAME": "COSMOS 2251 DEB", "OBJECT_ID": "1993-036JQ", "EPOCH": "2025-12-04T05:38:24.794016", "MEAN_MOTION": 13.49140542, "ECCENTRICITY": 0.04217228, "INCLINATION": 73.8444, "RA_OF_ASC_NODE": 255.8749, "ARG_OF_PERICENTER": 45.8516, "MEAN_ANOMALY": 317.646, "EPHEMERIS_TYPE": 0, "CLASSIFICATION_TYPE": "U", "NORAD_CAT_ID": 34053, "ELEMENT_SET_NO": 999, "REV_AT_EPOCH": 82569, "BSTAR": 0.0014020473, "MEAN_MOTION_DOT": 1.505e-05, "MEAN_MOTION_DDOT": 0}, "tle": {"line1": "1 34053U 93036JQ  25338.23500919  .00001505  00000+0  14020-2 0  9995", "line2": "2 34053  73.8444 255.8749 0421722  45.8516 317.6460 13.49140542825694"}}, "geometry": {"type": "Point", "coordinates": [-129.90551256852277, -55.51853745933252]}}, {"type": "Feature", "properties": {"norad_id": 34056, "name": "COSMOS 2251 DEB", "group": "cosmos-2251-debris", "lat": -44.743310887664656, "lon": -72.86806461969402, "alt_km": 823.2842025131722, "timestamp": "2025-12-04T17:48:40.558489+00:00", "meta": {"OBJECT_NAME": "COSMOS 2251 DEB", "OBJECT_ID": "1993-036JT", "EPOCH": "2025-12-03T17:41:46.568256", "MEAN_MOTION": 14.20482516, "ECCENTRICITY": 0.01248212, "INCLINATION": 74.0595, "RA_OF_ASC_NODE": 92.4731, "ARG_OF_PERICENTER": 142.6141, "MEAN_ANOMALY": 346.7228, "EPHEMERIS_TYPE": 0, "CLASSIFICATION_TYPE": "U", "NORAD_CAT_ID": 34056, "ELEMENT_SET_NO": 999, "REV_AT_EPOCH": 86283, "BSTAR": 0.0021548056, "MEAN_MOTION_DOT": 4.982e-05, "MEAN_MOTION_DDOT": 0}, "tle": {"line1": "1 34056U 93036JT  25337.73734454  .00004982  00000+0  21548-2 0  9990", "line2": "2 34056  74.0595  92.4731 0124821 142.6141 346.7228 14.20482516862835"}}, "geometry": {"type": "Point", "coordinates": [-72.86806461969402, -44.743310887664656]}}]}